{
  "type": "FeatureCollection",
  "features": [
    {
      "type": "Feature",
      "properties": {
        "norad_id": 35052,
        "name": "IRIDIUM 33 DEB",
        "group": "iridium-33-debris",
        "lat": -65.2417843870553,
        "lon": 15.62577813966512,
        "alt_km": 780.3792125965911,
        "timestamp": "2025-12-05T09:41:19.516977+00:00",
        "meta_object_name": "IRIDIUM 33 DEB",
        "meta_object_id": "1997-051NY",
        "meta_epoch": "2025-12-03T09:34:41.243808",
        "meta_mean_motion": 14.38474519,
        "meta_eccentricity": 0.00135564,
        "meta_inclination": 86.3319,
        "meta_ra_of_asc_node": 24.4803,
        "meta_arg_of_pericenter": 111.0544,
        "meta_mean_anomaly": 249.2105,
        "meta_ephemeris_type": 0,
        "meta_classification_type": "U",
        "meta_norad_cat_id": 35052,
        "meta_element_set_no": 999,
        "meta_rev_at_epoch": 87141,
        "meta_bstar": 0.0002868316,
        "meta_mean_motion_dot": 8.96e-06,
        "meta_mean_motion_ddot": 0,
        "tle_line1": "1 35052U 97051NY  25337.39908847  .00000896  00000+0  28683-3 0  9997",
        "tle_line2": "2 35052  86.3319  24.4803 0013556 111.0544 249.2105 14.38474519871414"
      },
      "geometry": {
        "type": "Point",
        "coordinates": [
          15.62577813966512,
          -65.2417843870553
        ]
      }
    },
    {
      "type": "Feature",
      "properties": {
        "norad_id": 35080,
        "name": "IRIDIUM 33 DEB",
        "group": "iridium-33-debris",
        "lat": -46.04155878442016,
        "lon": 51.933217890565984,
        "alt_km": 636.7719046946113,
        "timestamp": "2025-12-05T09:41:19.516987+00:00",
        "meta_object_name": "IRIDIUM 33 DEB",
        "meta_object_id": "1997-051PF",
        "meta_epoch": "2025-12-03T04:30:09.217152",
        "meta_mean_motion": 14.84042089,
        "meta_eccentricity": 0.00639322,
        "meta_inclination": 86.2067,
        "meta_ra_of_asc_node": 56.9348,
        "meta_arg_of_pericenter": 212.1182,
        "meta_mean_anomaly": 147.6141,
        "meta_ephemeris_type": 0,
        "meta_classification_type": "U",
        "meta_norad_cat_id": 35080,
        "meta_element_set_no": 999,
        "meta_rev_at_epoch": 69546,
        "meta_bstar": 0.011299497,
        "meta_mean_motion_dot": 0.00098836,
        "meta_mean_motion_ddot": 0,
        "tle_line1": "1 35080U 97051PF  25337.18760668  .00098836  00000+0  11299-1 0  9996",
        "tle_line2": "2 35080  86.2067  56.9348 0063932 212.1182 147.6141 14.84042089695466"
      },
      "geometry": {
        "type": "Point",
        "coordinates": [
          51.933217890565984,
          -46.04155878442016
        ]
      }
    },
    {
      "type": "Feature",
      "properties": {
        "norad_id": 35297,
        "name": "IRIDIUM 33 DEB",
        "group": "iridium-33-debris",
        "lat": 25.85643815296277,
        "lon": 67.6453266313791,
        "alt_km": 749.3314676277059,
        "timestamp": "2025-12-05T09:41:19.516998+00:00",
        "meta_object_name": "IRIDIUM 33 DEB",
        "meta_object_id": "1997-051PM",
        "meta_epoch": "2025-11-28T13:02:32.385696",
        "meta_mean_motion": 14.4505178,
        "meta_eccentricity": 0.00162447,
        "meta_inclination": 86.3859,
        "meta_ra_of_asc_node": 68.817,
        "meta_arg_of_pericenter": 185.2069,
        "meta_mean_anomaly": 174.8967,
        "meta_ephemeris_type": 0,
        "meta_classification_type": "U",
        "meta_norad_cat_id": 35297,
        "meta_element_set_no": 999,
        "meta_rev_at_epoch": 70221,
        "meta_bstar": 0.00072341306,
        "meta_mean_motion_dot": 2.549e-05,
        "meta_mean_motion_ddot": 0,
        "tle_line1": "1 35297U 97051PM  25332.54343039  .00002549  00000+0  72341-3 0  9993",
        "tle_line2": "2 35297  86.3859  68.8170 0016244 185.2069 174.8967 14.45051780702214"
      },
      "geometry": {
        "type": "Point",
        "coordinates": [
          67.6453266313791,
          25.85643815296277
        ]
      }
    },
    {
      "type": "Feature",
      "properties": {
        "norad_id": 35299,
        "name": "IRIDIUM 33 DEB",
        "group": "iridium-33-debris",
        "lat": 71.52003869190425,
        "lon": 47.57734794657337,
        "alt_km": 724.099889694804,
        "timestamp": "2025-12-05T09:41:19.517008+00:00",
        "meta_object_name": "IRIDIUM 33 DEB",
        "meta_object_id": "1997-051PP",
        "meta_epoch": "2025-12-04T11:59:39.257088",
        "meta_mean_motion": 14.40798128,
        "meta_eccentricity": 0.0058659,
        "meta_inclination": 86.2891,
        "meta_ra_of_asc_node": 36.7731,
        "meta_arg_of_pericenter": 128.6225,
        "meta_mean_anomaly": 298.184,
        "meta_ephemeris_type": 0,
        "meta_classification_type": "U",
        "meta_norad_cat_id": 35299,
        "meta_element_set_no": 999,
        "meta_rev_at_epoch": 86212,
        "meta_bstar": 0.0017677,
        "meta_mean_motion_dot": 5.794e-05,
        "meta_mean_motion_ddot": 0,
        "tle_line1": "1 35299U 97051PP  25338.49975992  .00005794  00000+0  17677-2 0  9999",
        "tle_line2": "2 35299  86.2891  36.7731 0058659 128.6225 298.1840 14.40798128862125"
      },
      "geometry": {
        "type": "Point",
        "coordinates": [
          47.57734794657337,
          71.52003869190425
        ]
      }
    },
    {
      "type": "Feature",
      "properties": {
        "norad_id": 35480,
        "name": "IRIDIUM 33 DEB",
        "group": "iridium-33-debris",
        "lat": -62.13688972991396,
        "lon": 21.171836663676565,
        "alt_km": 744.8449741804634,
        "timestamp": "2025-12-05T09:41:19.517019+00:00",
        "meta_object_name": "IRIDIUM 33 DEB",
        "meta_object_id": "1997-051QA",
        "meta_epoch": "2025-12-01T21:29:27.496896",
        "meta_mean_motion": 14.49686619,
        "meta_eccentricity": 0.00155495,
        "meta_inclination": 86.3575,
        "meta_ra_of_asc_node": 29.6125,
        "meta_arg_of_pericenter": 136.7189,
        "meta_mean_anomaly": 223.524,
        "meta_ephemeris_type": 0,
        "meta_classification_type": "U",
        "meta_norad_cat_id": 35480,
        "meta_element_set_no": 999,
        "meta_rev_at_epoch": 86874,
        "meta_bstar": 0.000651702,
        "meta_mean_motion_dot": 2.53e-05,
        "meta_mean_motion_ddot": 0,
        "tle_line1": "1 35480U 97051QA  25335.89545714  .00002530  00000+0  65170-3 0  9994",
        "tle_line2": "2 35480  86.3575  29.6125 0015549 136.7189 223.5240 14.49686619868745"
      },
      "geometry": {
        "type": "Point",
        "coordinates": [
          21.171836663676565,
          -62.13688972991396
        ]
      }
    },
    {
      "type": "Feature",
      "properties": {
        "norad_id": 35484,
        "name": "IRIDIUM 33 DEB",
        "group": "iridium-33-debris",
        "lat": -80.97852657694303,
        "lon": -160.20346372899624,
        "alt_km": 586.7849623996535,
        "timestamp": "2025-12-05T09:41:19.517029+00:00",
        "meta_object_name": "IRIDIUM 33 DEB",
        "meta_object_id": "1997-051QE",
        "meta_epoch": "2025-12-01T19:32:14.692416",
        "meta_mean_motion": 14.97587734,
        "meta_eccentricity": 0.00218288,
        "meta_inclination": 86.3628,
        "meta_ra_of_asc_node": 357.8533,
        "meta_arg_of_pericenter": 162.6444,
        "meta_mean_anomaly": 197.5538,
        "meta_ephemeris_type": 0,
        "meta_classification_type": "U",
        "meta_norad_cat_id": 35484,
        "meta_element_set_no": 999,
        "meta_rev_at_epoch": 61852,
        "meta_bstar": 0.0025030806,
        "meta_mean_motion_dot": 0.00029486,
        "meta_mean_motion_ddot": 0,
        "tle_line1": "1 35484U 97051QE  25335.81405894  .00029486  00000+0  25031-2 0  9994",
        "tle_line2": "2 35484  86.3628 357.8533 0021828 162.6444 197.5538 14.97587734618526"
      },
      "geometry": {
        "type": "Point",
        "coordinates": [
          -160.20346372899624,
          -80.97852657694303
        ]
      }
    },
    {
      "type": "Feature",
      "properties": {
        "norad_id": 35488,
        "name": "IRIDIUM 33 DEB",
        "group": "iridium-33-debris",
        "lat": 56.81981246745535,
        "lon": -50.0968718277411,
        "alt_km": 594.0807794684051,
        "timestamp": "2025-12-05T09:41:19.517039+00:00",
        "meta_object_name": "IRIDIUM 33 DEB",
        "meta_object_id": "1997-051QJ",
        "meta_epoch": "2025-12-03T15:19:15.802176",
        "meta_mean_motion": 14.8268507,
        "meta_eccentricity": 0.00306986,
        "meta_inclination": 86.3233,
        "meta_ra_of_asc_node": 305.0732,
        "meta_arg_of_pericenter": 71.607,
        "meta_mean_anomaly": 288.8486,
        "meta_ephemeris_type": 0,
        "meta_classification_type": "U",
        "meta_norad_cat_id": 35488,
        "meta_element_set_no": 999,
        "meta_rev_at_epoch": 88131,
        "meta_bstar": 0.0020184012,
        "meta_mean_motion_dot": 0.00016455,
        "meta_mean_motion_ddot": 0,
        "tle_line1": "1 35488U 97051QJ  25337.63837734  .00016455  00000+0  20184-2 0  9998",
        "tle_line2": "2 35488  86.3233 305.0732 0030698  71.6070 288.8486 14.82685070881318"
      },
      "geometry": {
        "type": "Point",
        "coordinates": [
          -50.0968718277411,
          56.81981246745535
        ]
      }
    }
  ]
}